[{"OBJECT_NAME":"CHECKMATE 5","OBJECT_ID":"2023-050B","EPOCH":"2026-03-09T17:13:01.638912","MEAN_MOTION":13.84966378,"ECCENTRICITY":0.00060126,"INCLINATION":81.004,"RA_OF_ASC_NODE":166.9717,"ARG_OF_PERICENTER":219.7953,"MEAN_ANOMALY":140.2763,"EPHEMERIS_TYPE":0,"CLASSIFICATION_TYPE":"U","NORAD_CAT_ID":56163,"ELEMENT_SET_NO":999,"REV_AT_EPOCH":14839,"BSTAR":0.0001009833,"MEAN_MOTION_DOT":1.25e-6,"MEAN_MOTION_DDOT":0},{"OBJECT_NAME":"SL-8 R\/B","OBJECT_ID":"1982-012B","EPOCH":"2026-03-09T21:25:31.903104","MEAN_MOTION":13.77379293,"ECCENTRICITY":0.00427751,"INCLINATION":82.9018,"RA_OF_ASC_NODE":354.7199,"ARG_OF_PERICENTER":319.8163,"MEAN_ANOMALY":107.7684,"EPHEMERIS_TYPE":0,"CLASSIFICATION_TYPE":"U","NORAD_CAT_ID":13066,"ELEMENT_SET_NO":999,"REV_AT_EPOCH":21373,"BSTAR":7.5542491e-5,"MEAN_MOTION_DOT":9.0e-7,"MEAN_MOTION_DDOT":0}]
